start=new Date('2022-12-28T00:00:00.000Z').valueOf();
sats=[{"ARG_OF_PERICENTER":"86.0871","CLASSIFICATION_TYPE":"U","MEAN_ELEMENT_THEORY":"SGP4","FILE":"3724149","DECAY_DATE":null,"NORAD_CAT_ID":"47636","INCLINATION":"53.0546","BSTAR":"0.00017237000000","LAUNCH_DATE":"2021-02-16","ELEMENT_SET_NO":"999","TLE_LINE2":"2 47636  53.0546 254.7101 0001443  86.0871 274.0283 15.06407854104228","EPOCH":"2022-12-27T18:02:48.387552","SITE":"AFETR","RA_OF_ASC_NODE":"254.7101","OBJECT_ID":"2021-012S","MEAN_MOTION_DOT":"0.00002287","MEAN_MOTION_DDOT":"0.0000000000000","SEMIMAJOR_AXIS":"6925.324","OBJECT_NAME":"STARLINK-2013","APOAPSIS":"548.189","ECCENTRICITY":"0.00014430","RCS_SIZE":"LARGE","PERIOD":"95.592","EPHEMERIS_TYPE":"0","MEAN_ANOMALY":"274.0283","REF_FRAME":"TEME","CENTER_NAME":"EARTH","MEAN_MOTION":"15.06407854","REV_AT_EPOCH":"10422","PERIAPSIS":"546.190","COUNTRY_CODE":"US","GP_ID":"221620551","OBJECT_TYPE":"PAYLOAD","TIME_SYSTEM":"UTC","TLE_LINE1":"1 47636U 21012S   22361.75194893  .00002287  00000-0  17237-3 0  9994"},{"PERIOD":"95.592","RCS_SIZE":"LARGE","ECCENTRICITY":"0.00013450","APOAPSIS":"548.151","TLE_LINE1":"1 47637U 21012T   22360.99265813  .00000747  00000-0  69011-4 0  9998","TIME_SYSTEM":"UTC","GP_ID":"221563048","OBJECT_TYPE":"PAYLOAD","PERIAPSIS":"546.288","COUNTRY_CODE":"US","MEAN_MOTION":"15.06398032","REV_AT_EPOCH":"10412","CENTER_NAME":"EARTH","REF_FRAME":"TEME","MEAN_ANOMALY":"255.7993","EPHEMERIS_TYPE":"0","LAUNCH_DATE":"2021-02-16","INCLINATION":"53.0549","BSTAR":"0.00006901100000","NORAD_CAT_ID":"47637","FILE":"3723863","DECAY_DATE":null,"MEAN_ELEMENT_THEORY":"SGP4","CLASSIFICATION_TYPE":"U","ARG_OF_PERICENTER":"104.3146","OBJECT_NAME":"STARLINK-2014","SEMIMAJOR_AXIS":"6925.355","MEAN_MOTION_DDOT":"0.0000000000000","MEAN_MOTION_DOT":"0.00000747","OBJECT_ID":"2021-012T","RA_OF_ASC_NODE":"258.1068","TLE_LINE2":"2 47637  53.0549 258.1068 0001345 104.3146 255.7993 15.06398032104122","SITE":"AFETR","EPOCH":"2022-12-26T23:49:25.662432","ELEMENT_SET_NO":"999"},{"APOAPSIS":"548.132","RCS_SIZE":"LARGE","PERIOD":"95.592","ECCENTRICITY":"0.00013270","CENTER_NAME":"EARTH","REV_AT_EPOCH":"10526","MEAN_MOTION":"15.06400120","EPHEMERIS_TYPE":"0","MEAN_ANOMALY":"277.5691","REF_FRAME":"TEME","GP_ID":"221622053","OBJECT_TYPE":"PAYLOAD","TIME_SYSTEM":"UTC","TLE_LINE1":"1 47638U 21012U   22361.78651020  .00001587  00000-0  12542-3 0  9995","COUNTRY_CODE":"US","PERIAPSIS":"546.294","NORAD_CAT_ID":"47638","ARG_OF_PERICENTER":"82.5448","CLASSIFICATION_TYPE":"U","MEAN_ELEMENT_THEORY":"SGP4","FILE":"3724149","DECAY_DATE":null,"BSTAR":"0.00012542000000","INCLINATION":"53.0534","LAUNCH_DATE":"2021-02-16","RA_OF_ASC_NODE":"179.5302","OBJECT_ID":"2021-012U","ELEMENT_SET_NO":"999","TLE_LINE2":"2 47638  53.0534 179.5302 0001327  82.5448 277.5691 15.06400120105261","EPOCH":"2022-12-27T18:52:34.481280","SITE":"AFETR","SEMIMAJOR_AXIS":"6925.348","OBJECT_NAME":"STARLINK-2015","MEAN_MOTION_DOT":"0.00001587","MEAN_MOTION_DDOT":"0.0000000000000"},{"INCLINATION":"53.0531","BSTAR":"0.00046763000000","LAUNCH_DATE":"2021-02-16","CLASSIFICATION_TYPE":"U","ARG_OF_PERICENTER":"91.6415","MEAN_ELEMENT_THEORY":"SGP4","FILE":"3724149","DECAY_DATE":null,"NORAD_CAT_ID":"47639","MEAN_MOTION_DDOT":"0.0000000000000","MEAN_MOTION_DOT":"0.00006693","SEMIMAJOR_AXIS":"6925.302","OBJECT_NAME":"STARLINK-2016","SITE":"AFETR","TLE_LINE2":"2 47639  53.0531 254.9406 0001615  91.6415 268.4759 15.06415223104204","EPOCH":"2022-12-27T16:48:30.767040","ELEMENT_SET_NO":"999","RA_OF_ASC_NODE":"254.9406","OBJECT_ID":"2021-012V","ECCENTRICITY":"0.00016150","RCS_SIZE":"LARGE","PERIOD":"95.591","APOAPSIS":"548.285","PERIAPSIS":"546.048","COUNTRY_CODE":"US","OBJECT_TYPE":"PAYLOAD","GP_ID":"221620802","TIME_SYSTEM":"UTC","TLE_LINE1":"1 47639U 21012V   22361.70035610  .00006693  00000-0  46763-3 0  9994","MEAN_ANOMALY":"268.4759","EPHEMERIS_TYPE":"0","REF_FRAME":"TEME","CENTER_NAME":"EARTH","REV_AT_EPOCH":"10420","MEAN_MOTION":"15.06415223"},{"APOAPSIS":"548.206","ECCENTRICITY":"0.00015280","RCS_SIZE":"LARGE","PERIOD":"95.591","MEAN_ANOMALY":"260.9415","EPHEMERIS_TYPE":"0","REF_FRAME":"TEME","CENTER_NAME":"EARTH","REV_AT_EPOCH":"10395","MEAN_MOTION":"15.06421599","COUNTRY_CODE":"US","PERIAPSIS":"546.089","GP_ID":"221621052","TIME_SYSTEM":"UTC","OBJECT_TYPE":"PAYLOAD","TLE_LINE1":"1 47640U 21012W   22361.76116540  .00005544  00000-0  39058-3 0  9997","CLASSIFICATION_TYPE":"U","ARG_OF_PERICENTER":"99.1747","FILE":"3724149","DECAY_DATE":null,"MEAN_ELEMENT_THEORY":"SGP4","NORAD_CAT_ID":"47640","INCLINATION":"53.0537","BSTAR":"0.00039058000000","LAUNCH_DATE":"2021-02-16","TLE_LINE2":"2 47640  53.0537 274.6585 0001528  99.1747 260.9415 15.06421599103953","EPOCH":"2022-12-27T18:16:04.690560","SITE":"AFETR","ELEMENT_SET_NO":"999","RA_OF_ASC_NODE":"274.6585","OBJECT_ID":"2021-012W","MEAN_MOTION_DDOT":"0.0000000000000","MEAN_MOTION_DOT":"0.00005544","SEMIMAJOR_AXIS":"6925.282","OBJECT_NAME":"STARLINK-2018"},{"MEAN_MOTION_DDOT":"0.0000000000000","MEAN_MOTION_DOT":"0.00000274","OBJECT_NAME":"STARLINK-2019","SEMIMAJOR_AXIS":"6925.344","TLE_LINE2":"2 47641  53.0521 179.9023 0001447  79.0266 281.0886 15.06401646105256","EPOCH":"2022-12-27T16:55:48.541152","SITE":"AFETR","ELEMENT_SET_NO":"999","RA_OF_ASC_NODE":"179.9023","OBJECT_ID":"2021-012X","INCLINATION":"53.0521","BSTAR":"0.00003728500000","LAUNCH_DATE":"2021-02-16","CLASSIFICATION_TYPE":"U","ARG_OF_PERICENTER":"79.0266","DECAY_DATE":null,"FILE":"3724149","MEAN_ELEMENT_THEORY":"SGP4","NORAD_CAT_ID":"47641","COUNTRY_CODE":"US","PERIAPSIS":"546.206","GP_ID":"221621804","OBJECT_TYPE":"PAYLOAD","TIME_SYSTEM":"UTC","TLE_LINE1":"1 47641U 21012X   22361.70542293  .00000274  00000-0  37285-4 0  9996","MEAN_ANOMALY":"281.0886","EPHEMERIS_TYPE":"0","REF_FRAME":"TEME","CENTER_NAME":"EARTH","REV_AT_EPOCH":"10525","MEAN_MOTION":"15.06401646","ECCENTRICITY":"0.00014470","RCS_SIZE":"LARGE","PERIOD":"95.592","APOAPSIS":"548.211"},{"OBJECT_NAME":"STARLINK-2020","SEMIMAJOR_AXIS":"6925.277","MEAN_MOTION_DDOT":"0.0000000000000","MEAN_MOTION_DOT":"0.00008549","OBJECT_ID":"2021-012Y","RA_OF_ASC_NODE":"269.6171","SITE":"AFETR","TLE_LINE2":"2 47642  53.0542 269.6171 0001691 104.9514 255.1662 15.06423408104013","EPOCH":"2022-12-27T18:24:42.313824","ELEMENT_SET_NO":"999","LAUNCH_DATE":"2021-02-16","BSTAR":"0.00059177000000","INCLINATION":"53.0542","NORAD_CAT_ID":"47642","FILE":"3724149","MEAN_ELEMENT_THEORY":"SGP4","DECAY_DATE":null,"CLASSIFICATION_TYPE":"U","ARG_OF_PERICENTER":"104.9514","TLE_LINE1":"1 47642U 21012Y   22361.76715641  .00008549  00000-0  59177-3 0  9998","TIME_SYSTEM":"UTC","GP_ID":"221621553","OBJECT_TYPE":"PAYLOAD","COUNTRY_CODE":"US","PERIAPSIS":"545.971","REV_AT_EPOCH":"10401","MEAN_MOTION":"15.06423408","CENTER_NAME":"EARTH","REF_FRAME":"TEME","MEAN_ANOMALY":"255.1662","EPHEMERIS_TYPE":"0","PERIOD":"95.591","RCS_SIZE":"LARGE","ECCENTRICITY":"0.00016910","APOAPSIS":"548.313"},{"OBJECT_ID":"2021-012Z","RA_OF_ASC_NODE":"254.8622","ELEMENT_SET_NO":"999","TLE_LINE2":"2 47643  53.0540 254.8622 0001497 116.9932 243.1210 15.06404152104224","EPOCH":"2022-12-27T17:09:44.069760","SITE":"AFETR","OBJECT_NAME":"STARLINK-2022","SEMIMAJOR_AXIS":"6925.336","MEAN_MOTION_DOT":"0.00002287","MEAN_MOTION_DDOT":"0.0000000000000","NORAD_CAT_ID":"47643","FILE":"3724149","DECAY_DATE":null,"MEAN_ELEMENT_THEORY":"SGP4","ARG_OF_PERICENTER":"116.9932","CLASSIFICATION_TYPE":"U","LAUNCH_DATE":"2021-02-16","BSTAR":"0.00017233000000","INCLINATION":"53.0540","REV_AT_EPOCH":"10422","MEAN_MOTION":"15.06404152","CENTER_NAME":"EARTH","REF_FRAME":"TEME","EPHEMERIS_TYPE":"0","MEAN_ANOMALY":"243.1210","TLE_LINE1":"1 47643U 21012Z   22361.71509340  .00002287  00000-0  17233-3 0  9991","OBJECT_TYPE":"PAYLOAD","GP_ID":"221620302","TIME_SYSTEM":"UTC","PERIAPSIS":"546.164","COUNTRY_CODE":"US","APOAPSIS":"548.238","PERIOD":"95.592","RCS_SIZE":"LARGE","ECCENTRICITY":"0.00014970"},{"SEMIMAJOR_AXIS":"6925.304","OBJECT_NAME":"STARLINK-2026","MEAN_MOTION_DOT":"0.00006071","MEAN_MOTION_DDOT":"0.0000000000000","RA_OF_ASC_NODE":"274.5100","OBJECT_ID":"2021-012AA","ELEMENT_SET_NO":"999","TLE_LINE2":"2 47644  53.0538 274.5100 0002030  50.8124 309.3045 15.06414643103962","EPOCH":"2022-12-27T19:03:51.092640","SITE":"AFETR","INCLINATION":"53.0538","BSTAR":"0.00042598000000","LAUNCH_DATE":"2021-02-16","NORAD_CAT_ID":"47644","ARG_OF_PERICENTER":"50.8124","CLASSIFICATION_TYPE":"U","DECAY_DATE":null,"FILE":"3724149","MEAN_ELEMENT_THEORY":"SGP4","TIME_SYSTEM":"UTC","GP_ID":"221620552","OBJECT_TYPE":"PAYLOAD","TLE_LINE1":"1 47644U 21012AA  22361.79434135  .00006071  00000-0  42598-3 0  9996","COUNTRY_CODE":"US","PERIAPSIS":"545.763","CENTER_NAME":"EARTH","MEAN_MOTION":"15.06414643","REV_AT_EPOCH":"10396","EPHEMERIS_TYPE":"0","MEAN_ANOMALY":"309.3045","REF_FRAME":"TEME","RCS_SIZE":"LARGE","PERIOD":"95.591","ECCENTRICITY":"0.00020300","APOAPSIS":"548.575"},{"GP_ID":"221621304","TIME_SYSTEM":"UTC","OBJECT_TYPE":"PAYLOAD","TLE_LINE1":"1 47645U 21012AB  22361.68286954  .00002453  00000-0  18345-3 0  9992","COUNTRY_CODE":"US","PERIAPSIS":"546.154","CENTER_NAME":"EARTH","MEAN_MOTION":"15.06408667","REV_AT_EPOCH":"10433","EPHEMERIS_TYPE":"0","MEAN_ANOMALY":"281.1396","REF_FRAME":"TEME","RCS_SIZE":"LARGE","PERIOD":"95.592","ECCENTRICITY":"0.00014910","APOAPSIS":"548.220","OBJECT_NAME":"STARLINK-2027","SEMIMAJOR_AXIS":"6925.322","MEAN_MOTION_DOT":"0.00002453","MEAN_MOTION_DDOT":"0.0000000000000","RA_OF_ASC_NODE":"245.2582","OBJECT_ID":"2021-012AB","ELEMENT_SET_NO":"999","SITE":"AFETR","TLE_LINE2":"2 47645  53.0539 245.2582 0001491  78.9761 281.1396 15.06408667104338","EPOCH":"2022-12-27T16:23:19.928256","INCLINATION":"53.0539","BSTAR":"0.00018345000000","LAUNCH_DATE":"2021-02-16","NORAD_CAT_ID":"47645","ARG_OF_PERICENTER":"78.9761","CLASSIFICATION_TYPE":"U","DECAY_DATE":null,"FILE":"3724149","MEAN_ELEMENT_THEORY":"SGP4"}];
